FLOCK 4G-24             
1 62637U 25009AE  26068.72509072  .00010513  00000+0  38996-3 0  9991
2 62637  97.4061 151.5140 0001802 280.2808  79.8228 15.27784978 63732
STARLINK-36524          
1 67452U 26008H   26068.86228837  .00042245  00000+0  15351-2 0  9999
2 67452  43.0011 204.6815 0002449 288.5037  71.5549 15.27595859  9593
