[{"OBJECT_NAME":"FLOCK 4G-24","OBJECT_ID":"2025-009AE","EPOCH":"2026-03-09T17:24:07.838208","MEAN_MOTION":15.27784978,"ECCENTRICITY":0.0001802,"INCLINATION":97.4061,"RA_OF_ASC_NODE":151.514,"ARG_OF_PERICENTER":280.2808,"MEAN_ANOMALY":79.8228,"EPHEMERIS_TYPE":0,"CLASSIFICATION_TYPE":"U","NORAD_CAT_ID":62637,"ELEMENT_SET_NO":999,"REV_AT_EPOCH":6373,"BSTAR":0.00038996067,"MEAN_MOTION_DOT":0.00010513,"MEAN_MOTION_DDOT":0},{"OBJECT_NAME":"STARLINK-36524","OBJECT_ID":"2026-008H","EPOCH":"2026-03-09T20:41:41.715168","MEAN_MOTION":15.27595859,"ECCENTRICITY":0.00024492,"INCLINATION":43.0011,"RA_OF_ASC_NODE":204.6815,"ARG_OF_PERICENTER":288.5037,"MEAN_ANOMALY":71.5549,"EPHEMERIS_TYPE":0,"CLASSIFICATION_TYPE":"U","NORAD_CAT_ID":67452,"ELEMENT_SET_NO":999,"REV_AT_EPOCH":959,"BSTAR":0.0015351124,"MEAN_MOTION_DOT":0.00042245,"MEAN_MOTION_DDOT":0}]
